MEAN_MOTION;ECCENTRICITY;INCLINATION;RA_OF_ASC_NODE;ARG_OF_PERICENTER;MEAN_ANOMALY;BSTAR;MEAN_MOTION_DOT;MEAN_MOTION_DDOT;TYPE
14.32837444;6.59E-5;44.9984;145.3346;57.4828;29.56;6.9657E-5;5.1E-7;0;Orbcomm
14.3283752;6.53E-5;44.9984;144.6346;57.8478;77.8904;7.0248E-5;5.3E-7;0;Orbcomm
14.32838022;6.05E-5;44.9983;140.3669;65.8527;76.3112;7.4347E-5;6.4E-7;0;Orbcomm
14.3283805;6.01E-5;44.9983;140.0238;66.2284;92.6571;7.3891E-5;6.3E-7;0;Orbcomm
14.32838601;5.58E-5;44.9984;135.4311;76.2282;86.0486;7.9916E-5;7.9E-7;0;Orbcomm
14.32838601;5.58E-5;44.9984;135.4311;76.2282;86.0486;7.9916E-5;7.9E-7;0;Orbcomm
14.32839107;5.36E-5;44.9984;131.2244;86.4948;15.1078;8.6239E-5;9.7E-7;0;Orbcomm
14.32839582;5.21E-5;44.9984;126.6363;98.5415;1.1813;9.0718E-5;1.09E-6;0;Orbcomm
14.32839989;5.1E-5;44.9984;122.0151;109.2994;25.0772;9.247E-5;1.14E-6;0;Orbcomm
14.32840256;5.15E-5;44.9984;118.8204;116.9621;285.5223;9.1371E-5;1.11E-6;0;Orbcomm
14.32840347;5.29E-5;44.9984;117.116;121.0876;353.1005;8.8833E-5;1.04E-6;0;Orbcomm
14.32840504;5.52E-5;44.9984;113.8413;129.9726;340.0683;7.9466E-5;7.8E-7;0;Orbcomm
14.32840702;5.72E-5;44.9985;110.6065;136.3566;285.9005;7.1897E-5;5.7E-7;0;Orbcomm
14.32840793;6.11E-5;44.9984;107.5882;142.432;354.081;6.0817E-5;2.7E-7;0;Orbcomm
14.32840873;6.3E-5;44.9985;106.0187;145.9364;274.0422;5.5676E-5;1.3E-7;0;Orbcomm
14.32841159;6.77E-5;44.9985;101.4317;153.7867;263.0816;4.9942E-5;-3.0E-8;0;Orbcomm
14.32841172;6.8E-5;44.9985;101.0908;154.3802;276.8606;4.9837E-5;-3.0E-8;0;Orbcomm
14.32841421;7.31E-5;44.9986;96.5021;161.2524;268.7611;4.4928E-5;-1.7E-7;0;Orbcomm
14.3284147;7.5E-5;44.9986;95.1727;163.1033;286.6043;4.2607E-5;-2.3E-7;0;Orbcomm
14.32841582;7.65E-5;44.9986;93.4744;164.8762;349.7822;4.4878E-5;-1.7E-7;0;Orbcomm
14.32841694;7.86E-5;44.9986;91.573;167.8201;274.607;4.6971E-5;-1.1E-7;0;Orbcomm
14.32841808;8.1E-5;44.9986;90.2368;169.385;300.24;4.9544E-5;-4.0E-8;0;Orbcomm
14.32841962;8.23E-5;44.9987;88.6128;170.9505;282.0141;5.4374E-5;9.0E-8;0;Orbcomm
14.32842038;8.36E-5;44.9987;86.9848;172.8989;267.7724;5.6635E-5;1.5E-7;0;Orbcomm
14.32842303;8.75E-5;44.9987;84.3066;175.3925;326.1646;6.3873E-5;3.5E-7;0;Orbcomm
14.32843052;9.78E-5;44.999;77.8086;182.667;254.3596;8.3256E-5;8.9E-7;0;Orbcomm
14.32843076;9.84E-5;44.9989;77.5175;182.9314;213.7223;8.3191E-5;8.8E-7;0;Orbcomm
14.32843552;0.0001032;44.9991;72.6068;186.3358;202.8595;8.5399E-5;9.5E-7;0;Orbcomm
14.32843651;0.0001059;44.9991;71.5403;187.3121;292.9715;8.3825E-5;9.0E-7;0;Orbcomm
14.3284402;0.0001107;44.9992;68.0004;190.299;217.2641;8.187E-5;8.5E-7;0;Orbcomm
14.32844278;0.0001133;44.9993;65.6117;191.7568;318.9789;8.0113E-5;8.0E-7;0;Orbcomm
14.32844505;0.0001171;44.9994;63.4078;193.8532;217.0672;7.8418E-5;7.5E-7;0;Orbcomm
14.32844989;0.0001217;44.9995;59.1133;196.5902;250.2772;8.0551E-5;8.1E-7;0;Orbcomm
14.32845024;0.0001222;44.9995;58.8184;196.7505;213.8713;8.0594E-5;8.1E-7;0;Orbcomm
14.32845591;0.0001284;44.9997;54.2315;200.2308;207.3709;8.4536E-5;9.2E-7;0;Orbcomm
14.3284585;0.0001297;44.9997;52.1649;201.1194;315.9687;8.7353E-5;1.0E-6;0;Orbcomm
14.3284618;0.0001337;44.9998;49.3015;203.2329;218.1295;9.0352E-5;1.08E-6;0;Orbcomm
14.3284635;0.0001349;44.9998;47.9191;203.8981;295.5739;9.2676E-5;1.15E-6;0;Orbcomm
14.32846427;0.0001354;44.9998;47.2616;204.256;297.2837;9.3262E-5;1.16E-6;0;Orbcomm
14.32846673;0.0001395;44.9999;44.6719;205.9629;259.2781;9.3813E-5;1.18E-6;0;Orbcomm
14.32846746;0.0001403;44.9999;44.0175;206.3993;257.4061;9.3811E-5;1.18E-6;0;Orbcomm
14.32847327;0.0001469;45;38.7812;209.6372;244.291;9.5776E-5;1.23E-6;0;Orbcomm
14.32847415;0.0001474;45;38.087;209.9154;286.4021;9.6051E-5;1.24E-6;0;Orbcomm
14.32847912;0.0001524;45.0002;33.8153;212.2942;294.9033;9.6192E-5;1.24E-6;0;Orbcomm
14.32848353;0.0001559;45.0002;30.9082;214.022;245.451;9.7222E-5;1.27E-6;0;Orbcomm
14.32848637;0.0001576;45.0003;28.8789;214.8194;313.1916;9.7362E-5;1.27E-6;0;Orbcomm
14.3284902;0.0001614;45.0004;25.9794;216.5507;255.4301;9.5805E-5;1.23E-6;0;Orbcomm
14.32849582;0.0001661;45.0005;21.7705;219.1583;194.895;9.5651E-5;1.23E-6;0;Orbcomm
14.32849674;0.0001663;45.0005;21.3908;219.1325;251.9465;9.6506E-5;1.25E-6;0;Orbcomm
14.32850292;0.0001713;45.0005;16.845;222.0802;201.0375;9.702E-5;1.27E-6;0;Orbcomm
14.32850346;0.0001721;45.0005;16.4925;222.4358;227.7316;9.6857E-5;1.26E-6;0;Orbcomm
14.32851013;0.0001781;45.0005;11.5601;225.2746;241.3211;9.8923E-5;1.32E-6;0;Orbcomm
14.32851152;0.000177;45.0004;10.5605;225.1911;259.1169;9.9254E-5;1.33E-6;0;Orbcomm
14.32851536;0.0001809;45.0004;7.0145;226.8511;191.402;9.8778E-5;1.31E-6;0;Orbcomm
14.32851704;0.0001811;45.0003;5.6462;227.6355;253.2378;9.9843E-5;1.34E-6;0;Orbcomm
14.32851984;0.0001835;45.0003;3.0868;228.8912;182.5419;0.00010011;1.35E-6;0;Orbcomm
14.32852397;0.0001857;45.0002;358.1156;230.8784;239.555;9.3297E-5;1.16E-6;0;Orbcomm
14.32852837;0.00019;45.0001;353.2105;233.6299;223.2785;8.762E-5;1.01E-6;0;Orbcomm
14.3285315;0.0001927;45.0001;348.9421;236.1571;228.1011;7.8317E-5;7.5E-7;0;Orbcomm
14.32853334;0.0001936;45;347.2481;236.775;287.7542;7.825E-5;7.5E-7;0;Orbcomm
14.32853595;0.0001983;45;343.7317;238.2839;187.5514;7.1889E-5;5.7E-7;0;Orbcomm
14.32853987;0.0002024;44.9999;339.1439;240.2398;183.4958;6.9415E-5;5.1E-7;0;Orbcomm
14.32854022;0.0002025;44.9999;338.7589;240.3873;246.1738;6.9875E-5;5.2E-7;0;Orbcomm
14.32854305;0.0002066;44.9999;334.2106;243.5356;197.7455;6.6932E-5;4.4E-7;0;Orbcomm
14.32854359;0.0002068;44.9999;333.4823;244.0054;277.0629;6.7398E-5;4.5E-7;0;Orbcomm
14.32854612;0.0002101;44.9998;329.5792;246.1466;240.9816;6.7239E-5;4.5E-7;0;Orbcomm
14.32854788;0.0002124;44.9997;326.6901;247.8158;171.804;6.7787E-5;4.6E-7;0;Orbcomm
14.32854816;0.0002125;44.9996;326.3485;248.0028;186.773;6.816E-5;4.7E-7;0;Orbcomm
14.32854868;0.0002128;44.9996;325.6537;248.2229;229.5467;6.7592E-5;4.6E-7;0;Orbcomm
14.32855238;0.0002166;44.9995;320.4092;250.2534;226.5469;6.8893E-5;4.9E-7;0;Orbcomm
14.32855585;0.000219;44.9993;315.8186;252.5715;225.0378;6.7854E-5;4.6E-7;0;Orbcomm
14.32855674;0.0002193;44.9993;314.8201;252.7147;241.4345;6.7811E-5;4.6E-7;0;Orbcomm
14.32856132;0.0002216;44.9992;310.5813;254.989;213.689;7.0031E-5;5.2E-7;0;Orbcomm
14.3285637;0.0002232;44.9992;308.0244;256.513;139.9054;6.9747E-5;5.2E-7;0;Orbcomm
14.3285661;0.0002229;44.9992;305.9932;257.8715;209.0008;7.1381E-5;5.6E-7;0;Orbcomm
14.3285692;0.0002254;44.9992;303.1127;258.9917;130.8249;7.2746E-5;6.0E-7;0;Orbcomm
14.32857103;0.0002255;44.9992;301.7106;259.7659;229.7691;7.4777E-5;6.5E-7;0;Orbcomm
14.32857727;0.0002273;44.9992;296.8185;262.1768;199.2697;8.2249E-5;8.6E-7;0;Orbcomm
14.32857773;0.0002274;44.9992;296.4678;262.2779;224.2281;8.2702E-5;8.7E-7;0;Orbcomm
14.32858068;0.0002288;44.9991;293.5353;263.7289;202.9688;8.4155E-5;9.1E-7;0;Orbcomm
14.32858459;0.0002302;44.9991;288.9893;266.205;152.4478;8.4358E-5;9.2E-7;0;Orbcomm
14.32858582;0.0002301;44.9991;287.2645;267.2914;245.306;8.3424E-5;8.9E-7;0;Orbcomm
14.32858798;0.0002308;44.999;284.4165;269.1096;130.904;8.2051E-5;8.5E-7;0;Orbcomm
14.3285911;0.0002322;44.9989;279.8289;271.2812;126.4052;7.6148E-5;6.9E-7;0;Orbcomm
14.32859145;0.000232;44.9989;279.4363;271.4971;197.3082;7.5671E-5;6.8E-7;0;Orbcomm
14.32859555;0.0002325;44.9989;274.57;273.9312;138.4858;7.1505E-5;5.6E-7;0;Orbcomm
14.32859703;0.000232;44.9988;273.1533;274.8318;253.2563;7.2386E-5;5.9E-7;0;Orbcomm
14.3286016;0.0002323;44.9988;268.5975;277.1516;213.6413;7.187E-5;5.7E-7;0;Orbcomm
14.32860317;0.0002331;44.9988;267.0259;277.9777;138.5243;7.1182E-5;5.5E-7;0;Orbcomm
14.32860696;0.0002327;44.9988;263.6585;279.916;234.2807;7.4966E-5;6.6E-7;0;Orbcomm
14.32860971;0.0002327;44.9988;260.8084;281.1337;122.6111;7.549E-5;6.7E-7;0;Orbcomm
14.32861135;0.0002329;44.9988;259.0689;282.1391;231.8082;7.6792E-5;7.1E-7;0;Orbcomm
14.32861584;0.0002331;44.9988;254.4894;284.7956;217.8422;8.0624E-5;8.1E-7;0;Orbcomm
14.32861953;0.0002323;44.9988;250.5965;287.0303;170.4012;8.4333E-5;9.2E-7;0;Orbcomm
14.32862287;0.0002313;44.9988;246.6998;289.2866;127.1699;8.3839E-5;9.0E-7;0;Orbcomm
14.32862407;0.0002309;44.9988;245.3148;290.2436;207.1092;8.3857E-5;9.0E-7;0;Orbcomm
14.32862708;0.0002298;44.9988;241.7665;292.2646;141.4564;8.1362E-5;8.4E-7;0;Orbcomm
14.32862807;0.0002293;44.9988;240.7265;292.9967;202.8827;8.0936E-5;8.2E-7;0;Orbcomm
14.32863294;0.0002287;44.9987;237.1796;294.9969;135.7752;8.5257E-5;9.4E-7;0;Orbcomm
14.32863331;0.0002278;44.9987;236.1374;295.7975;199.4402;7.9955E-5;8.0E-7;0;Orbcomm
14.32863729;0.000227;44.9986;232.592;297.6993;130.7481;7.7129E-5;7.2E-7;0;Orbcomm
14.32863867;0.0002259;44.9986;231.5462;298.5272;198.3889;7.7425E-5;7.3E-7;0;Orbcomm
14.32864666;0.0002248;44.9986;227.6619;300.8169;141.5767;9.5643E-5;1.23E-6;0;Orbcomm
14.32865125;0.0002215;44.9984;222.3754;304.1523;183.3573;8.3686E-5;9.0E-7;0;Orbcomm
14.32865683;0.0002191;44.9983;217.7875;306.9599;178.507;8.6308E-5;9.7E-7;0;Orbcomm
14.32866089;0.000217;44.9982;213.8957;309.3141;129.7489;8.6776E-5;9.8E-7;0;Orbcomm
14.32866181;0.0002161;44.9982;213.1715;309.8949;204.3921;8.7891E-5;1.02E-6;0;Orbcomm
14.32866623;0.0002124;44.9981;208.2672;312.9932;186.6925;8.6118E-5;9.7E-7;0;Orbcomm
14.32866995;0.0002089;44.998;203.6807;316.0867;179.9696;8.1486E-5;8.4E-7;0;Orbcomm
14.32867166;0.0002072;44.998;201.4759;317.5256;79.6079;7.8683E-5;7.6E-7;0;Orbcomm
14.32867365;0.000205;44.998;199.4408;318.9531;152.8525;7.7164E-5;7.2E-7;0;Orbcomm
14.32867399;0.0002045;44.998;199.0926;319.2169;174.993;7.6637E-5;7.1E-7;0;Orbcomm
14.32867577;0.0002023;44.998;196.5604;320.8946;73.832;7.0992E-5;5.5E-7;0;Orbcomm
14.32867752;0.0002;44.9979;194.5013;322.5335;173.4213;6.801E-5;4.7E-7;0;Orbcomm
14.32868019;0.0001955;44.9979;190.5714;325.227;166.0851;5.9939E-5;2.5E-7;0;Orbcomm
14.32868034;0.0001956;44.9979;190.2661;325.5043;141.0352;5.9247E-5;2.3E-7;0;Orbcomm
14.32868057;0.0001957;44.9979;189.9167;325.8104;164.4407;5.8469E-5;2.0E-7;0;Orbcomm
14.3286834;0.0001907;44.9978;185.3258;329.2331;162.3077;5.1065E-5;0;0;Orbcomm
14.32868447;0.0001894;44.9978;183.7557;330.2996;85.2843;4.9524E-5;-4.0E-8;0;Orbcomm
